H-2A R/B                
1 27601U 02056E   17106.84794083  .00000018  00000-0  21537-4 0  9998
2 27601  98.3810 176.7492 0073367 117.0614   7.0020 14.31774006749034
CZ-4B R/B               
1 28059U 03049C   17106.78729640 -.00000002  00000-0  11472-4 0  9990
2 28059  98.5698 351.4787 0051364  74.9710 326.8527 14.52482864714765
CZ-2C R/B               
1 28222U 04012C   17106.90912655  .00000861  00000-0  56778-4 0  9997
2 28222  97.5190  64.5821 0049557  37.4728 354.3559 15.09140134711333
SL-16 R/B               
1 28353U 04021B   17106.82317088  .00000127  00000-0  91500-4 0  9999
2 28353  71.0007 207.1547 0006930 284.3485  75.6867 14.14186837663474
CZ-2C R/B               
1 28480U 04046B   17106.91062660 -.00000001  00000-0  14727-4 0  9998
2 28480  98.1924 207.0571 0142869  45.7991  63.9946 14.25632989645487
ARIANE 5 R/B            
1 28499U 04049H   17106.87140523  .00000060  00000-0  14722-4 0  9990
2 28499  98.0798 189.5288 0093579  54.1785  80.2613 14.79802875664882
CZ-2D R/B               
1 28738U 05024B   17106.68335442  .00000333  00000-0  23715-4 0  9990
2 28738  97.5040 144.7490 0011429 209.8233 150.2347 15.11064036646520
SUZAKU (ASTRO-EII)      
1 28773U 05025A   17106.88407543  .00001351  00000-0  64808-4 0  9993
2 28773  31.3836 333.9358 0004566  91.4602 268.6568 15.15671467648046
ALOS (DAICHI)           
1 28931U 06002A   17106.96695367  .00000048  00000-0  18140-4 0  9997
2 28931  97.8479 137.3687 0002239 112.1341 248.0100 14.62336738598519
H-2A R/B                
1 28932U 06002B   17106.89394345  .00000172  00000-0  22353-4 0  9991
2 28932  98.2070  27.3173 0090680 151.5817 255.5089 14.91305831608560
AKARI (ASTRO-F)         
1 28939U 06005A   17106.70157824  .00002665  00000-0  84279-4 0  9994
2 28939  98.2566 301.2375 0108577  40.2143 320.7063 15.28295375603728
RESURS-DK 1             
1 29228U 06021A   17106.91136137  .00000175  00000-0  20653-4 0  9991
2 29228  69.9350 253.9716 0001816  52.3603 307.7722 15.02128790598897
GENESIS 1               
1 29252U 06029A   17106.59687067  .00000366  00000-0  28832-4 0  9992
2 29252  64.5035 126.6483 0010410 305.3010 203.4303 15.16679439592498
CZ-4B R/B               
1 29507U 06046C   17106.90251756  .00001076  00000-0  89699-4 0  9998
2 29507  97.7925 114.3685 0044016  89.3568 271.2699 15.00047309571802
CZ-2C R/B               
1 31114U 07010B   17106.86316291  .00000001  00000-0  19756-4 0  9992
2 31114  98.4036  12.5039 0060519  34.5991 325.9101 14.19238447518800
COSMO-SKYMED 1          
1 31598U 07023A   17106.80656712  .00000127  00000-0  22533-4 0  9997
2 31598  97.8799 291.4431 0001656  92.1314 268.0099 14.82158056533352
GENESIS 2               
1 31789U 07028A   17106.65115371  .00000403  00000-0  31269-4 0  9991
2 31789  64.5034 164.1999 0035846 229.3667 130.4337 15.15961280539581
COSMOS 2428             
1 31792U 07029A   17106.93623829  .00000012  00000-0  32589-4 0  9991
2 31792  70.9135 180.7131 0007059 345.6580  14.4339 14.12255294505337
SL-16 R/B               
1 31793U 07029B   17106.71174187  .00000210  00000-0  13456-3 0  9997
2 31793  70.9740 158.2945 0002422 258.8821 240.1448 14.14375650505986
KORONAS-FOTON           
1 33504U 09003A   17106.93306143  .00000854  00000-0  44191-4 0  9991
2 33504  82.4400 293.8467 0018517 325.7203  34.2832 15.14760017452104
TIANGONG 1              
1 37820U 11053A   17106.79351990  .00021142  00000-0  13449-3 0  9992
2 37820  42.7600 215.1747 0018765 358.7199 139.3336 15.75774028318272
CZ-3B R/B               
1 38253U 12018D   17106.88103180  .01546839  43520-5  71255-3 0  9995
2 38253  54.8783  13.1460 1962993 165.0939 201.7576 11.86872019120526
H-2A R/B                
1 38341U 12025E   17106.79543872  .00000165  00000-0  27051-4 0  9990
2 38341  98.4375 180.3752 0055787 357.2066   2.8827 14.83542384265691
CUSAT 2 & FALCON 9 R/B  
1 39271U 13055G   17106.83472872  .00012036  00000-0  31018-3 0  9990
2 39271  80.9694  62.0074 0637649  23.7960 339.1359 14.36282565183817
ALOS-2                  
1 39766U 14029A   17106.83961477  .00000232  00000-0  37926-4 0  9995
2 39766  97.9190 205.0450 0001613  90.0963 270.0437 14.79473966156531
ASTRO-H (HITOMI)        
1 41337U 16012A   17106.56611806  .00000321  00000-0  19344-4 0  9997
2 41337  31.0049 149.2678 0012446 152.3953 207.7344 14.98277919 63675
